start=new Date('2022-12-03T00:00:00.000Z').valueOf();
sats=[{"REF_FRAME":"TEME","CLASSIFICATION_TYPE":"U","OBJECT_TYPE":"PAYLOAD","MEAN_MOTION":"15.06408582","ECCENTRICITY":"0.00015140","ELEMENT_SET_NO":"999","MEAN_ANOMALY":"254.2368","RCS_SIZE":"LARGE","NORAD_CAT_ID":"46726","TIME_SYSTEM":"UTC","SEMIMAJOR_AXIS":"6925.322","GP_ID":"219356872","EPOCH":"2022-12-02T08:27:03.378816","DECAY_DATE":null,"APOAPSIS":"548.236","LAUNCH_DATE":"2020-10-18","MEAN_MOTION_DDOT":"0.0000000000000","OBJECT_NAME":"STARLINK-1829","BSTAR":"0.00012578000000","FILE":"3679384","COUNTRY_CODE":"US","TLE_LINE1":"1 46726U 20073BJ  22336.35212244  .00001593  00000-0  12578-3 0  9990","REV_AT_EPOCH":"11774","TLE_LINE2":"2 46726  53.0548 198.7133 0001514 105.8788 254.2368 15.06408582117741","MEAN_MOTION_DOT":"0.00001593","MEAN_ELEMENT_THEORY":"SGP4","CENTER_NAME":"EARTH","PERIAPSIS":"546.139","OBJECT_ID":"2020-073BJ","RA_OF_ASC_NODE":"198.7133","ARG_OF_PERICENTER":"105.8788","SITE":"AFETR","INCLINATION":"53.0548","EPHEMERIS_TYPE":"0","PERIOD":"95.592"},{"CENTER_NAME":"EARTH","MEAN_ELEMENT_THEORY":"SGP4","MEAN_MOTION_DOT":"-0.00000060","TLE_LINE2":"2 46727  53.0546 171.5423 0001799  65.3917 294.7259 15.06397499117696","REV_AT_EPOCH":"11769","TLE_LINE1":"1 46727U 20073BK  22336.84008469 -.00000060  00000-0  14854-4 0  9996","COUNTRY_CODE":"US","FILE":"3679625","PERIOD":"95.592","EPHEMERIS_TYPE":"0","SITE":"AFETR","INCLINATION":"53.0546","ARG_OF_PERICENTER":"65.3917","RA_OF_ASC_NODE":"171.5423","PERIAPSIS":"545.975","OBJECT_ID":"2020-073BK","SEMIMAJOR_AXIS":"6925.356","TIME_SYSTEM":"UTC","NORAD_CAT_ID":"46727","MEAN_ANOMALY":"294.7259","RCS_SIZE":"LARGE","ECCENTRICITY":"0.00017990","ELEMENT_SET_NO":"999","MEAN_MOTION":"15.06397499","OBJECT_TYPE":"PAYLOAD","CLASSIFICATION_TYPE":"U","REF_FRAME":"TEME","BSTAR":"0.00001485400000","OBJECT_NAME":"STARLINK-1830","MEAN_MOTION_DDOT":"0.0000000000000","APOAPSIS":"548.467","LAUNCH_DATE":"2020-10-18","DECAY_DATE":null,"EPOCH":"2022-12-02T20:09:43.317216","GP_ID":"219378495"},{"ECCENTRICITY":"0.00018030","ELEMENT_SET_NO":"999","MEAN_MOTION":"15.06403333","OBJECT_TYPE":"PAYLOAD","CLASSIFICATION_TYPE":"U","REF_FRAME":"TEME","SEMIMAJOR_AXIS":"6925.338","NORAD_CAT_ID":"46740","TIME_SYSTEM":"UTC","RCS_SIZE":"LARGE","MEAN_ANOMALY":"295.3614","MEAN_MOTION_DDOT":"0.0000000000000","OBJECT_NAME":"STARLINK-1848","DECAY_DATE":null,"APOAPSIS":"548.452","LAUNCH_DATE":"2020-10-24","GP_ID":"219347131","EPOCH":"2022-12-02T06:28:19.351488","BSTAR":"0.00012123000000","MEAN_MOTION_DOT":"0.00001525","TLE_LINE2":"2 46740  53.0540 284.0975 0001803  64.7562 295.3614 15.06403333116722","REV_AT_EPOCH":"11672","MEAN_ELEMENT_THEORY":"SGP4","TLE_LINE1":"1 46740U 20074B   22336.26966842  .00001525  00000-0  12123-3 0  9998","COUNTRY_CODE":"US","FILE":"3679245","CENTER_NAME":"EARTH","ARG_OF_PERICENTER":"64.7562","RA_OF_ASC_NODE":"284.0975","OBJECT_ID":"2020-074B","PERIAPSIS":"545.955","EPHEMERIS_TYPE":"0","PERIOD":"95.592","INCLINATION":"53.0540","SITE":"AFETR"},{"SEMIMAJOR_AXIS":"6925.353","TIME_SYSTEM":"UTC","NORAD_CAT_ID":"46741","MEAN_ANOMALY":"305.6443","RCS_SIZE":"LARGE","ECCENTRICITY":"0.00017850","ELEMENT_SET_NO":"999","MEAN_MOTION":"15.06398657","OBJECT_TYPE":"PAYLOAD","REF_FRAME":"TEME","CLASSIFICATION_TYPE":"U","BSTAR":"0.00015889000000","OBJECT_NAME":"STARLINK-1865","MEAN_MOTION_DDOT":"0.0000000000000","LAUNCH_DATE":"2020-10-24","APOAPSIS":"548.454","DECAY_DATE":null,"EPOCH":"2022-12-02T13:15:02.320416","GP_ID":"219347382","CENTER_NAME":"EARTH","MEAN_ELEMENT_THEORY":"SGP4","MEAN_MOTION_DOT":"0.00002086","TLE_LINE2":"2 46741  53.0567 277.8329 0001785  54.4712 305.6443 15.06398657116847","REV_AT_EPOCH":"11684","TLE_LINE1":"1 46741U 20074C   22336.55211019  .00002086  00000-0  15889-3 0  9995","COUNTRY_CODE":"US","FILE":"3679245","PERIOD":"95.592","EPHEMERIS_TYPE":"0","INCLINATION":"53.0567","SITE":"AFETR","ARG_OF_PERICENTER":"54.4712","RA_OF_ASC_NODE":"277.8329","PERIAPSIS":"545.981","OBJECT_ID":"2020-074C"},{"CENTER_NAME":"EARTH","FILE":"3679625","COUNTRY_CODE":"US","TLE_LINE1":"1 46742U 20074D   22336.84636914  .00035265  00000-0  55318-3 0  9999","TLE_LINE2":"2 46742  53.0533 253.8102 0005080 109.4102 250.7457 15.53362019117201","MEAN_MOTION_DOT":"0.00035265","REV_AT_EPOCH":"11720","MEAN_ELEMENT_THEORY":"SGP4","INCLINATION":"53.0533","SITE":"AFETR","EPHEMERIS_TYPE":"0","PERIOD":"92.702","OBJECT_ID":"2020-074D","PERIAPSIS":"403.473","RA_OF_ASC_NODE":"253.8102","ARG_OF_PERICENTER":"109.4102","RCS_SIZE":"LARGE","MEAN_ANOMALY":"250.7457","NORAD_CAT_ID":"46742","TIME_SYSTEM":"UTC","SEMIMAJOR_AXIS":"6785.055","REF_FRAME":"TEME","CLASSIFICATION_TYPE":"U","MEAN_MOTION":"15.53362019","OBJECT_TYPE":"PAYLOAD","ECCENTRICITY":"0.00050800","ELEMENT_SET_NO":"999","BSTAR":"0.00055318000000","GP_ID":"219379747","EPOCH":"2022-12-02T20:18:46.293696","DECAY_DATE":null,"APOAPSIS":"410.367","LAUNCH_DATE":"2020-10-24","OBJECT_NAME":"STARLINK-1872","MEAN_MOTION_DDOT":"0.0000000000000"},{"REF_FRAME":"TEME","CLASSIFICATION_TYPE":"U","ELEMENT_SET_NO":"999","ECCENTRICITY":"0.00014330","OBJECT_TYPE":"PAYLOAD","MEAN_MOTION":"15.06400036","TIME_SYSTEM":"UTC","NORAD_CAT_ID":"46743","MEAN_ANOMALY":"296.3545","RCS_SIZE":"LARGE","SEMIMAJOR_AXIS":"6925.348","APOAPSIS":"548.206","LAUNCH_DATE":"2020-10-24","DECAY_DATE":null,"EPOCH":"2022-12-02T13:04:24.303936","GP_ID":"219355601","OBJECT_NAME":"STARLINK-1892","MEAN_MOTION_DDOT":"0.0000000000000","BSTAR":"0.00041599000000","COUNTRY_CODE":"US","FILE":"3679340","MEAN_ELEMENT_THEORY":"SGP4","MEAN_MOTION_DOT":"0.00005920","TLE_LINE2":"2 46743  53.0543 277.8442 0001433  63.7591 296.3545 15.06400036116863","REV_AT_EPOCH":"11686","TLE_LINE1":"1 46743U 20074E   22336.54472574  .00005920  00000-0  41599-3 0  9998","CENTER_NAME":"EARTH","RA_OF_ASC_NODE":"277.8442","PERIAPSIS":"546.221","OBJECT_ID":"2020-074E","ARG_OF_PERICENTER":"63.7591","INCLINATION":"53.0543","SITE":"AFETR","PERIOD":"95.592","EPHEMERIS_TYPE":"0"},{"CENTER_NAME":"EARTH","TLE_LINE1":"1 46744U 20074F   22336.62856920 -.00000089  00000-0  12928-4 0  9996","MEAN_ELEMENT_THEORY":"SGP4","TLE_LINE2":"2 46744  53.0525 277.4786 0002182  49.8972 310.2208 15.06400332116851","MEAN_MOTION_DOT":"-0.00000089","REV_AT_EPOCH":"11685","FILE":"3679625","COUNTRY_CODE":"US","PERIOD":"95.592","EPHEMERIS_TYPE":"0","INCLINATION":"53.0525","SITE":"AFETR","ARG_OF_PERICENTER":"49.8972","OBJECT_ID":"2020-074F","PERIAPSIS":"545.701","RA_OF_ASC_NODE":"277.4786","SEMIMAJOR_AXIS":"6925.348","RCS_SIZE":"LARGE","MEAN_ANOMALY":"310.2208","TIME_SYSTEM":"UTC","NORAD_CAT_ID":"46744","MEAN_MOTION":"15.06400332","OBJECT_TYPE":"PAYLOAD","ECCENTRICITY":"0.00021820","ELEMENT_SET_NO":"999","REF_FRAME":"TEME","CLASSIFICATION_TYPE":"U","BSTAR":"0.00001292800000","OBJECT_NAME":"STARLINK-1894","MEAN_MOTION_DDOT":"0.0000000000000","EPOCH":"2022-12-02T15:05:08.378880","GP_ID":"219378746","APOAPSIS":"548.724","LAUNCH_DATE":"2020-10-24","DECAY_DATE":null},{"SEMIMAJOR_AXIS":"6925.370","TIME_SYSTEM":"UTC","NORAD_CAT_ID":"46746","RCS_SIZE":"LARGE","MEAN_ANOMALY":"310.1938","ELEMENT_SET_NO":"999","ECCENTRICITY":"0.00020750","MEAN_MOTION":"15.06393042","OBJECT_TYPE":"PAYLOAD","REF_FRAME":"TEME","CLASSIFICATION_TYPE":"U","BSTAR":"0.00011067000000","MEAN_MOTION_DDOT":"0.0000000000000","OBJECT_NAME":"STARLINK-1905","LAUNCH_DATE":"2020-10-24","APOAPSIS":"548.672","DECAY_DATE":null,"EPOCH":"2022-12-02T20:14:21.360192","GP_ID":"219379498","CENTER_NAME":"EARTH","MEAN_ELEMENT_THEORY":"SGP4","TLE_LINE2":"2 46746  53.0561 276.5201 0002075  49.9233 310.1938 15.06393042116888","MEAN_MOTION_DOT":"0.00001367","REV_AT_EPOCH":"11688","TLE_LINE1":"1 46746U 20074H   22336.84330278  .00001367  00000-0  11067-3 0  9996","COUNTRY_CODE":"US","FILE":"3679625","PERIOD":"95.593","EPHEMERIS_TYPE":"0","SITE":"AFETR","INCLINATION":"53.0561","ARG_OF_PERICENTER":"49.9233","RA_OF_ASC_NODE":"276.5201","PERIAPSIS":"545.798","OBJECT_ID":"2020-074H"},{"CENTER_NAME":"EARTH","COUNTRY_CODE":"US","FILE":"3679625","TLE_LINE2":"2 46747  53.0518 276.6012 0002177  61.9865 298.1344 15.06401666116888","REV_AT_EPOCH":"11688","MEAN_MOTION_DOT":"0.00001314","MEAN_ELEMENT_THEORY":"SGP4","TLE_LINE1":"1 46747U 20074J   22336.82486999  .00001314  00000-0  10712-3 0  9995","SITE":"AFETR","INCLINATION":"53.0518","EPHEMERIS_TYPE":"0","PERIOD":"95.592","RA_OF_ASC_NODE":"276.6012","PERIAPSIS":"545.701","OBJECT_ID":"2020-074J","ARG_OF_PERICENTER":"61.9865","NORAD_CAT_ID":"46747","TIME_SYSTEM":"UTC","RCS_SIZE":"LARGE","MEAN_ANOMALY":"298.1344","SEMIMAJOR_AXIS":"6925.343","REF_FRAME":"TEME","CLASSIFICATION_TYPE":"U","ECCENTRICITY":"0.00021770","ELEMENT_SET_NO":"999","OBJECT_TYPE":"PAYLOAD","MEAN_MOTION":"15.06401666","BSTAR":"0.00010712000000","DECAY_DATE":null,"LAUNCH_DATE":"2020-10-24","APOAPSIS":"548.716","GP_ID":"219379248","EPOCH":"2022-12-02T19:47:48.767136","MEAN_MOTION_DDOT":"0.0000000000000","OBJECT_NAME":"STARLINK-1908"},{"ARG_OF_PERICENTER":"65.2823","OBJECT_ID":"2020-074K","PERIAPSIS":"546.254","RA_OF_ASC_NODE":"277.7526","EPHEMERIS_TYPE":"0","PERIOD":"95.592","INCLINATION":"53.0554","SITE":"AFETR","TLE_LINE1":"1 46748U 20074K   22336.56684711  .00000958  00000-0  83167-4 0  9997","TLE_LINE2":"2 46748  53.0554 277.7526 0001374  65.2823 294.8309 15.06402721116843","MEAN_MOTION_DOT":"0.00000958","REV_AT_EPOCH":"11684","MEAN_ELEMENT_THEORY":"SGP4","FILE":"3679625","COUNTRY_CODE":"US","CENTER_NAME":"EARTH","MEAN_MOTION_DDOT":"0.0000000000000","OBJECT_NAME":"STARLINK-1910","GP_ID":"219377996","EPOCH":"2022-12-02T13:36:15.590304","DECAY_DATE":null,"LAUNCH_DATE":"2020-10-24","APOAPSIS":"548.157","BSTAR":"0.00008316700000","MEAN_MOTION":"15.06402721","OBJECT_TYPE":"PAYLOAD","ECCENTRICITY":"0.00013740","ELEMENT_SET_NO":"999","CLASSIFICATION_TYPE":"U","REF_FRAME":"TEME","SEMIMAJOR_AXIS":"6925.340","MEAN_ANOMALY":"294.8309","RCS_SIZE":"LARGE","NORAD_CAT_ID":"46748","TIME_SYSTEM":"UTC"}];
